{
  "type": "FeatureCollection",
  "features": [
    {
      "type": "Feature",
      "properties": {
        "norad_id": 38062,
        "name": "COSMOS 2251 DEB",
        "group": "cosmos-2251-debris",
        "lat": 71.55345861200658,
        "lon": 26.690840132995852,
        "alt_km": 570.4280173326297,
        "timestamp": "2025-12-24T20:42:21.423440+00:00",
        "meta_object_name": "COSMOS 2251 DEB",
        "meta_object_id": "1993-036BRU",
        "meta_epoch": "2025-12-20T12:40:12.328608",
        "meta_mean_motion": 14.95206267,
        "meta_eccentricity": 0.00129431,
        "meta_inclination": 74.0088,
        "meta_ra_of_asc_node": 274.7346,
        "meta_arg_of_pericenter": 42.7602,
        "meta_mean_anomaly": 131.9089,
        "meta_ephemeris_type": 0,
        "meta_classification_type": "U",
        "meta_norad_cat_id": 38062,
        "meta_element_set_no": 999,
        "meta_rev_at_epoch": 63146,
        "meta_bstar": 0.0014745207,
        "meta_mean_motion_dot": 0.00016237,
        "meta_mean_motion_ddot": 0,
        "tle_line1": "1 38062U 93036BRU 25354.52792047  .00016237  00000+0  14745-2 0  9996",
        "tle_line2": "2 38062  74.0088 274.7346 0012943  42.7602 131.9089 14.95206267631464"
      },
      "geometry": {
        "type": "Point",
        "coordinates": [
          26.690840132995852,
          71.55345861200658
        ]
      }
    },
    {
      "type": "Feature",
      "properties": {
        "norad_id": 38064,
        "name": "COSMOS 2251 DEB",
        "group": "cosmos-2251-debris",
        "lat": 50.90028573926494,
        "lon": -99.52255854766831,
        "alt_km": 701.0827156197265,
        "timestamp": "2025-12-24T20:42:21.423461+00:00",
        "meta_object_name": "COSMOS 2251 DEB",
        "meta_object_id": "1993-036BRW",
        "meta_epoch": "2025-12-24T00:20:31.022880",
        "meta_mean_motion": 14.5638999,
        "meta_eccentricity": 0.00470717,
        "meta_inclination": 74.023,
        "meta_ra_of_asc_node": 102.7307,
        "meta_arg_of_pericenter": 220.4178,
        "meta_mean_anomaly": 139.3486,
        "meta_ephemeris_type": 0,
        "meta_classification_type": "U",
        "meta_norad_cat_id": 38064,
        "meta_element_set_no": 999,
        "meta_rev_at_epoch": 72029,
        "meta_bstar": 0.0010077447,
        "meta_mean_motion_dot": 4.512e-05,
        "meta_mean_motion_ddot": 0,
        "tle_line1": "1 38064U 93036BRW 25358.01424795  .00004512  00000+0  10077-2 0  9995",
        "tle_line2": "2 38064  74.0230 102.7307 0047071 220.4178 139.3486 14.56389990720290"
      },
      "geometry": {
        "type": "Point",
        "coordinates": [
          -99.52255854766831,
          50.90028573926494
        ]
      }
    },
    {
      "type": "Feature",
      "properties": {
        "norad_id": 38067,
        "name": "COSMOS 2251 DEB",
        "group": "cosmos-2251-debris",
        "lat": -42.56706898246238,
        "lon": -123.96460622537812,
        "alt_km": 687.0399333331125,
        "timestamp": "2025-12-24T20:42:21.423472+00:00",
        "meta_object_name": "COSMOS 2251 DEB",
        "meta_object_id": "1993-036BRZ",
        "meta_epoch": "2025-12-23T23:37:20.127936",
        "meta_mean_motion": 14.61165668,
        "meta_eccentricity": 0.0069893,
        "meta_inclination": 74.016,
        "meta_ra_of_asc_node": 252.9804,
        "meta_arg_of_pericenter": 37.5842,
        "meta_mean_anomaly": 339.4482,
        "meta_ephemeris_type": 0,
        "meta_classification_type": "U",
        "meta_norad_cat_id": 38067,
        "meta_element_set_no": 999,
        "meta_rev_at_epoch": 62720,
        "meta_bstar": 0.00036242,
        "meta_mean_motion_dot": 1.816e-05,
        "meta_mean_motion_ddot": 0,
        "tle_line1": "1 38067U 93036BRZ 25357.98426074  .00001816  00000+0  36242-3 0  9992",
        "tle_line2": "2 38067  74.0160 252.9804 0069893  37.5842 339.4482 14.61165668627202"
      },
      "geometry": {
        "type": "Point",
        "coordinates": [
          -123.96460622537812,
          -42.56706898246238
        ]
      }
    },
    {
      "type": "Feature",
      "properties": {
        "norad_id": 38068,
        "name": "COSMOS 2251 DEB",
        "group": "cosmos-2251-debris",
        "lat": 59.29543624839441,
        "lon": -45.1682559215226,
        "alt_km": 754.8222657445604,
        "timestamp": "2025-12-24T20:42:21.423482+00:00",
        "meta_object_name": "COSMOS 2251 DEB",
        "meta_object_id": "1993-036BSA",
        "meta_epoch": "2025-11-26T00:12:22.263264",
        "meta_mean_motion": 14.35960004,
        "meta_eccentricity": 0.00240903,
        "meta_inclination": 74.0219,
        "meta_ra_of_asc_node": 338.9788,
        "meta_arg_of_pericenter": 72.1007,
        "meta_mean_anomaly": 288.2769,
        "meta_ephemeris_type": 0,
        "meta_classification_type": "U",
        "meta_norad_cat_id": 38068,
        "meta_element_set_no": 999,
        "meta_rev_at_epoch": 66406,
        "meta_bstar": 0.00028750999,
        "meta_mean_motion_dot": 8.11e-06,
        "meta_mean_motion_ddot": 0,
        "tle_line1": "1 38068U 93036BSA 25330.00859101  .00000811  00000+0  28751-3 0  9998",
        "tle_line2": "2 38068  74.0219 338.9788 0024090  72.1007 288.2769 14.35960004664064"
      },
      "geometry": {
        "type": "Point",
        "coordinates": [
          -45.1682559215226,
          59.29543624839441
        ]
      }
    },
    {
      "type": "Feature",
      "properties": {
        "norad_id": 38197,
        "name": "COSMOS 2251 DEB",
        "group": "cosmos-2251-debris",
        "lat": -68.56600233723805,
        "lon": -73.98092348421541,
        "alt_km": 632.1568146277468,
        "timestamp": "2025-12-24T20:42:21.423492+00:00",
        "meta_object_name": "COSMOS 2251 DEB",
        "meta_object_id": "1993-036BSM",
        "meta_epoch": "2025-12-22T15:18:58.604256",
        "meta_mean_motion": 14.74460834,
        "meta_eccentricity": 0.01247811,
        "meta_inclination": 73.938,
        "meta_ra_of_asc_node": 337.6017,
        "meta_arg_of_pericenter": 212.6548,
        "meta_mean_anomaly": 146.6868,
        "meta_ephemeris_type": 0,
        "meta_classification_type": "U",
        "meta_norad_cat_id": 38197,
        "meta_element_set_no": 999,
        "meta_rev_at_epoch": 85901,
        "meta_bstar": 0.0030808591,
        "meta_mean_motion_dot": 0.00023252,
        "meta_mean_motion_ddot": 0,
        "tle_line1": "1 38197U 93036BSM 25356.63817829  .00023252  00000+0  30809-2 0  9999",
        "tle_line2": "2 38197  73.9380 337.6017 0124781 212.6548 146.6868 14.74460834859011"
      },
      "geometry": {
        "type": "Point",
        "coordinates": [
          -73.98092348421541,
          -68.56600233723805
        ]
      }
    },
    {
      "type": "Feature",
      "properties": {
        "norad_id": 38199,
        "name": "COSMOS 2251 DEB",
        "group": "cosmos-2251-debris",
        "lat": -20.632355680289784,
        "lon": 36.05103852834447,
        "alt_km": 755.0233258417938,
        "timestamp": "2025-12-24T20:42:21.423502+00:00",
        "meta_object_name": "COSMOS 2251 DEB",
        "meta_object_id": "1993-036BSP",
        "meta_epoch": "2025-12-23T11:22:51.988512",
        "meta_mean_motion": 13.64808888,
        "meta_eccentricity": 0.03701637,
        "meta_inclination": 73.9557,
        "meta_ra_of_asc_node": 44.5515,
        "meta_arg_of_pericenter": 328.9029,
        "meta_mean_anomaly": 29.0633,
        "meta_ephemeris_type": 0,
        "meta_classification_type": "U",
        "meta_norad_cat_id": 38199,
        "meta_element_set_no": 999,
        "meta_rev_at_epoch": 61168,
        "meta_bstar": 0.00059794488,
        "meta_mean_motion_dot": 7.45e-06,
        "meta_mean_motion_ddot": 0,
        "tle_line1": "1 38199U 93036BSP 25357.47421283  .00000745  00000+0  59794-3 0  9996",
        "tle_line2": "2 38199  73.9557  44.5515 0370163 328.9029  29.0633 13.64808888611684"
      },
      "geometry": {
        "type": "Point",
        "coordinates": [
          36.05103852834447,
          -20.632355680289784
        ]
      }
    },
    {
      "type": "Feature",
      "properties": {
        "norad_id": 38208,
        "name": "COSMOS 2251 DEB",
        "group": "cosmos-2251-debris",
        "lat": -56.992254509528195,
        "lon": 28.629497672341987,
        "alt_km": 623.0937094781466,
        "timestamp": "2025-12-24T20:42:21.423512+00:00",
        "meta_object_name": "COSMOS 2251 DEB",
        "meta_object_id": "1993-036BSY",
        "meta_epoch": "2025-12-22T10:48:57.448224",
        "meta_mean_motion": 14.84216991,
        "meta_eccentricity": 8.867e-05,
        "meta_inclination": 74.0048,
        "meta_ra_of_asc_node": 59.6241,
        "meta_arg_of_pericenter": 125.3536,
        "meta_mean_anomaly": 250.7467,
        "meta_ephemeris_type": 0,
        "meta_classification_type": "U",
        "meta_norad_cat_id": 38208,
        "meta_element_set_no": 999,
        "meta_rev_at_epoch": 71303,
        "meta_bstar": 0.0024430964,
        "meta_mean_motion_dot": 0.00020478,
        "meta_mean_motion_ddot": 0,
        "tle_line1": "1 38208U 93036BSY 25356.45066491  .00020478  00000+0  24431-2 0  9994",
        "tle_line2": "2 38208  74.0048  59.6241 0000886 125.3536 250.7467 14.84216991713030"
      },
      "geometry": {
        "type": "Point",
        "coordinates": [
          28.629497672341987,
          -56.992254509528195
        ]
      }
    }
  ]
}